{
  "type": "FeatureCollection",
  "features": [
    {
      "type": "Feature",
      "properties": {
        "norad_id": 36696,
        "name": "FENGYUN 1C DEB",
        "group": "fengyun-1c-debris",
        "lat": -48.889941654744085,
        "lon": 163.31567504545217,
        "alt_km": 772.309928836642,
        "timestamp": "2025-12-10T20:49:52.842056+00:00",
        "meta_object_name": "FENGYUN 1C DEB",
        "meta_object_id": "1999-025DZS",
        "meta_epoch": "2025-12-09T07:03:23.734944",
        "meta_mean_motion": 14.39130794,
        "meta_eccentricity": 0.0023,
        "meta_inclination": 98.9925,
        "meta_ra_of_asc_node": 352.121,
        "meta_arg_of_pericenter": 339.2487,
        "meta_mean_anomaly": 20.7763,
        "meta_ephemeris_type": 0,
        "meta_classification_type": "U",
        "meta_norad_cat_id": 36696,
        "meta_element_set_no": 999,
        "meta_rev_at_epoch": 64346,
        "meta_bstar": 0.0028391,
        "meta_mean_motion_dot": 8.775e-05,
        "meta_mean_motion_ddot": 0,
        "tle_line1": "1 36696U 99025DZS 25343.29402471  .00008775  00000+0  28391-2 0  9992",
        "tle_line2": "2 36696  98.9925 352.1210 0023000 339.2487  20.7763 14.39130794643468"
      },
      "geometry": {
        "type": "Point",
        "coordinates": [
          163.31567504545217,
          -48.889941654744085
        ]
      }
    },
    {
      "type": "Feature",
      "properties": {
        "norad_id": 36699,
        "name": "FENGYUN 1C DEB",
        "group": "fengyun-1c-debris",
        "lat": 4.2223941348727765,
        "lon": -21.218436070190663,
        "alt_km": 857.5649592922746,
        "timestamp": "2025-12-10T20:49:52.842066+00:00",
        "meta_object_name": "FENGYUN 1C DEB",
        "meta_object_id": "1999-025DZV",
        "meta_epoch": "2025-12-10T05:38:12.819840",
        "meta_mean_motion": 14.2428889,
        "meta_eccentricity": 0.0094519,
        "meta_inclination": 98.5588,
        "meta_ra_of_asc_node": 338.8019,
        "meta_arg_of_pericenter": 137.3473,
        "meta_mean_anomaly": 223.5095,
        "meta_ephemeris_type": 0,
        "meta_classification_type": "U",
        "meta_norad_cat_id": 36699,
        "meta_element_set_no": 999,
        "meta_rev_at_epoch": 73291,
        "meta_bstar": 0.00034107,
        "meta_mean_motion_dot": 7.83e-06,
        "meta_mean_motion_ddot": 0,
        "tle_line1": "1 36699U 99025DZV 25344.23487060  .00000783  00000+0  34107-3 0  9991",
        "tle_line2": "2 36699  98.5588 338.8019 0094519 137.3473 223.5095 14.24288890732910"
      },
      "geometry": {
        "type": "Point",
        "coordinates": [
          -21.218436070190663,
          4.2223941348727765
        ]
      }
    },
    {
      "type": "Feature",
      "properties": {
        "norad_id": 36701,
        "name": "FENGYUN 1C DEB",
        "group": "fengyun-1c-debris",
        "lat": -39.32015145523555,
        "lon": -50.71785680848952,
        "alt_km": 906.6741714880163,
        "timestamp": "2025-12-10T20:49:52.842076+00:00",
        "meta_object_name": "FENGYUN 1C DEB",
        "meta_object_id": "1999-025DZX",
        "meta_epoch": "2025-12-09T15:15:38.057760",
        "meta_mean_motion": 13.71305696,
        "meta_eccentricity": 0.0260138,
        "meta_inclination": 102.7439,
        "meta_ra_of_asc_node": 296.9694,
        "meta_arg_of_pericenter": 260.5557,
        "meta_mean_anomaly": 96.6087,
        "meta_ephemeris_type": 0,
        "meta_classification_type": "U",
        "meta_norad_cat_id": 36701,
        "meta_element_set_no": 999,
        "meta_rev_at_epoch": 61096,
        "meta_bstar": 0.0037365,
        "meta_mean_motion_dot": 4.196e-05,
        "meta_mean_motion_ddot": 0,
        "tle_line1": "1 36701U 99025DZX 25343.63585715  .00004196  00000+0  37365-2 0  9994",
        "tle_line2": "2 36701 102.7439 296.9694 0260138 260.5557  96.6087 13.71305696610969"
      },
      "geometry": {
        "type": "Point",
        "coordinates": [
          -50.71785680848952,
          -39.32015145523555
        ]
      }
    },
    {
      "type": "Feature",
      "properties": {
        "norad_id": 36707,
        "name": "FENGYUN 1C DEB",
        "group": "fengyun-1c-debris",
        "lat": -59.681506724684645,
        "lon": 46.28329319859066,
        "alt_km": 877.2890794727655,
        "timestamp": "2025-12-10T20:49:52.842086+00:00",
        "meta_object_name": "FENGYUN 1C DEB",
        "meta_object_id": "1999-025EAD",
        "meta_epoch": "2025-12-09T09:32:23.366688",
        "meta_mean_motion": 14.17293777,
        "meta_eccentricity": 0.00499529,
        "meta_inclination": 98.7523,
        "meta_ra_of_asc_node": 29.5616,
        "meta_arg_of_pericenter": 131.2163,
        "meta_mean_anomaly": 229.3333,
        "meta_ephemeris_type": 0,
        "meta_classification_type": "U",
        "meta_norad_cat_id": 36707,
        "meta_element_set_no": 999,
        "meta_rev_at_epoch": 64032,
        "meta_bstar": 0.0012730756,
        "meta_mean_motion_dot": 2.562e-05,
        "meta_mean_motion_ddot": 0,
        "tle_line1": "1 36707U 99025EAD 25343.39749267  .00002562  00000+0  12731-2 0  9992",
        "tle_line2": "2 36707  98.7523  29.5616 0049952 131.2163 229.3333 14.17293777640322"
      },
      "geometry": {
        "type": "Point",
        "coordinates": [
          46.28329319859066,
          -59.681506724684645
        ]
      }
    },
    {
      "type": "Feature",
      "properties": {
        "norad_id": 36710,
        "name": "FENGYUN 1C DEB",
        "group": "fengyun-1c-debris",
        "lat": -10.802137203899544,
        "lon": 43.6120277147473,
        "alt_km": 776.3526637327586,
        "timestamp": "2025-12-10T20:49:52.842096+00:00",
        "meta_object_name": "FENGYUN 1C DEB",
        "meta_object_id": "1999-025EAG",
        "meta_epoch": "2025-12-09T10:05:53.606976",
        "meta_mean_motion": 14.49787027,
        "meta_eccentricity": 0.00678732,
        "meta_inclination": 98.3799,
        "meta_ra_of_asc_node": 40.5617,
        "meta_arg_of_pericenter": 191.5881,
        "meta_mean_anomaly": 168.3755,
        "meta_ephemeris_type": 0,
        "meta_classification_type": "U",
        "meta_norad_cat_id": 36710,
        "meta_element_set_no": 999,
        "meta_rev_at_epoch": 64905,
        "meta_bstar": 0.0022522303,
        "meta_mean_motion_dot": 8.905e-05,
        "meta_mean_motion_ddot": 0,
        "tle_line1": "1 36710U 99025EAG 25343.42075934  .00008905  00000+0  22522-2 0  9999",
        "tle_line2": "2 36710  98.3799  40.5617 0067873 191.5881 168.3755 14.49787027649059"
      },
      "geometry": {
        "type": "Point",
        "coordinates": [
          43.6120277147473,
          -10.802137203899544
        ]
      }
    },
    {
      "type": "Feature",
      "properties": {
        "norad_id": 36711,
        "name": "FENGYUN 1C DEB",
        "group": "fengyun-1c-debris",
        "lat": -78.71712699058904,
        "lon": 76.86339930649663,
        "alt_km": 722.0064079334879,
        "timestamp": "2025-12-10T20:49:52.842106+00:00",
        "meta_object_name": "FENGYUN 1C DEB",
        "meta_object_id": "1999-025EAH",
        "meta_epoch": "2025-11-29T18:49:32.545344",
        "meta_mean_motion": 14.42080972,
        "meta_eccentricity": 0.01000486,
        "meta_inclination": 100.8061,
        "meta_ra_of_asc_node": 349.6584,
        "meta_arg_of_pericenter": 244.1532,
        "meta_mean_anomaly": 114.9305,
        "meta_ephemeris_type": 0,
        "meta_classification_type": "U",
        "meta_norad_cat_id": 36711,
        "meta_element_set_no": 999,
        "meta_rev_at_epoch": 64124,
        "meta_bstar": 0.0024295961,
        "meta_mean_motion_dot": 8.419e-05,
        "meta_mean_motion_ddot": 0,
        "tle_line1": "1 36711U 99025EAH 25333.78440446  .00008419  00000+0  24296-2 0  9992",
        "tle_line2": "2 36711 100.8061 349.6584 0100048 244.1532 114.9305 14.42080972641246"
      },
      "geometry": {
        "type": "Point",
        "coordinates": [
          76.86339930649663,
          -78.71712699058904
        ]
      }
    },
    {
      "type": "Feature",
      "properties": {
        "norad_id": 36716,
        "name": "FENGYUN 1C DEB",
        "group": "fengyun-1c-debris",
        "lat": -38.64052503875243,
        "lon": -88.5964094481259,
        "alt_km": 933.1540672521396,
        "timestamp": "2025-12-10T20:49:52.842116+00:00",
        "meta_object_name": "FENGYUN 1C DEB",
        "meta_object_id": "1999-025EAN",
        "meta_epoch": "2025-12-10T12:22:25.648032",
        "meta_mean_motion": 13.88411976,
        "meta_eccentricity": 0.01480449,
        "meta_inclination": 99.2282,
        "meta_ra_of_asc_node": 263.5873,
        "meta_arg_of_pericenter": 234.8718,
        "meta_mean_anomaly": 123.849,
        "meta_ephemeris_type": 0,
        "meta_classification_type": "U",
        "meta_norad_cat_id": 36716,
        "meta_element_set_no": 999,
        "meta_rev_at_epoch": 62900,
        "meta_bstar": 0.00035629093,
        "meta_mean_motion_dot": 4.21e-06,
        "meta_mean_motion_ddot": 0,
        "tle_line1": "1 36716U 99025EAN 25344.51557463  .00000421  00000+0  35629-3 0  9996",
        "tle_line2": "2 36716  99.2282 263.5873 0148044 234.8718 123.8490 13.88411976629007"
      },
      "geometry": {
        "type": "Point",
        "coordinates": [
          -88.5964094481259,
          -38.64052503875243
        ]
      }
    }
  ]
}